SL-4 R/B                
1 39679U 14021B   26048.43158581  .00014008  00000+0  31606-3 0  9998
2 39679  51.6060  76.0523 0098894  29.1592 331.4863 15.38479654653153
YAOGAN-29               
1 41038U 15069A   26048.62013911  .00000520  00000+0  70767-4 0  9997
2 41038  98.0164  76.9938 0002772  68.8532 291.2977 14.82971428552902
ASTRO-H (HITOMI)        
1 41337U 16012A   26048.47173619  .00003581  00000+0  21002-3 0  9990
2 41337  30.9990 127.0023 0009876 129.7747 230.3762 15.09854395549170
HXMT (HUIYAN)           
1 42758U 17034A   26048.56822972  .00006868  00000+0  34693-3 0  9997
2 42758  43.0145 128.5168 0030576 108.2226 252.1953 15.17202746479482
CZ-2C R/B               
1 43521U 18054D   26048.49412624  .00610028  17365-3  86523-3 0  9994
2 43521  35.1267  80.7709 0011463 114.8865 245.3070 16.04439528425655
SAOCOM 1A               
1 43641U 18076A   26048.64235507 -.00000063  00000+0 -14083-5 0  9993
2 43641  97.8871 237.0986 0001352  80.3447 279.7919 14.82144305398390
H-2A R/B                
1 43682U 18084L   26048.53679383  .00017879  00000+0  43854-3 0  9996
2 43682  98.8746 261.6317 0026383  92.9332 267.4929 15.40439677402677
SAOCOM 1B               
1 46265U 20059A   26048.60610458  .00000829  00000+0  11066-3 0  9994
2 46265  97.8868 236.1606 0001476  86.8712 273.2670 14.82149516295773
CSS (TIANHE)            
1 48274U 21035A   26048.23206423  .00029154  00000+0  35627-3 0  9994
2 48274  41.4683 332.5551 0004162 122.3722 237.7519 15.59770251274413
COSMOS 2550             
1 48865U 21056A   26048.62902090 -.00000062  00000+0  39412-5 0  9995
2 48865  67.1419 101.6131 0008310 269.9280  90.0922 15.33831128260388
CZ-2C R/B               
1 52794U 22058K   26048.44320700  .00036619  00000+0  56381-3 0  9994
2 52794  50.1884  62.3184 0042110 114.6971 245.8392 15.52770409206984
