CCSDS_OMM_VERS = 2.0
CREATION_DATE  = 
ORIGINATOR     = 

OBJECT_NAME    = SL-4 R/B
OBJECT_ID      = 2014-021B
CENTER_NAME    = EARTH
REF_FRAME      = TEME
TIME_SYSTEM    = UTC
MEAN_ELEMENT_THEORY = SGP/SGP4

EPOCH          = 2026-02-17T10:21:29.013984
MEAN_MOTION    = 15.38479654
ECCENTRICITY   = .00988942
INCLINATION    = 51.6060
RA_OF_ASC_NODE = 76.0523
ARG_OF_PERICENTER = 29.1592
MEAN_ANOMALY   = 331.4863

EPHEMERIS_TYPE = 0
CLASSIFICATION_TYPE = U
NORAD_CAT_ID   = 39679
ELEMENT_SET_NO = 999
REV_AT_EPOCH   = 65315
BSTAR          = .3160578E-3
MEAN_MOTION_DOT = .14008E-3
MEAN_MOTION_DDOT = 0

CCSDS_OMM_VERS = 2.0
CREATION_DATE  = 
ORIGINATOR     = 

OBJECT_NAME    = YAOGAN-29
OBJECT_ID      = 2015-069A
CENTER_NAME    = EARTH
REF_FRAME      = TEME
TIME_SYSTEM    = UTC
MEAN_ELEMENT_THEORY = SGP/SGP4

EPOCH          = 2026-02-17T14:53:00.019104
MEAN_MOTION    = 14.82971428
ECCENTRICITY   = .00027729
INCLINATION    = 98.0164
RA_OF_ASC_NODE = 76.9938
ARG_OF_PERICENTER = 68.8532
MEAN_ANOMALY   = 291.2977

EPHEMERIS_TYPE = 0
CLASSIFICATION_TYPE = U
NORAD_CAT_ID   = 41038
ELEMENT_SET_NO = 999
REV_AT_EPOCH   = 55290
BSTAR          = .70766797E-4
MEAN_MOTION_DOT = .52E-5
MEAN_MOTION_DDOT = 0

CCSDS_OMM_VERS = 2.0
CREATION_DATE  = 
ORIGINATOR     = 

OBJECT_NAME    = ASTRO-H (HITOMI)
OBJECT_ID      = 2016-012A
CENTER_NAME    = EARTH
REF_FRAME      = TEME
TIME_SYSTEM    = UTC
MEAN_ELEMENT_THEORY = SGP/SGP4

EPOCH          = 2026-02-17T11:19:18.006816
MEAN_MOTION    = 15.09854395
ECCENTRICITY   = .00098764
INCLINATION    = 30.9990
RA_OF_ASC_NODE = 127.0023
ARG_OF_PERICENTER = 129.7747
MEAN_ANOMALY   = 230.3762

EPHEMERIS_TYPE = 0
CLASSIFICATION_TYPE = U
NORAD_CAT_ID   = 41337
ELEMENT_SET_NO = 999
REV_AT_EPOCH   = 54917
BSTAR          = .21002085E-3
MEAN_MOTION_DOT = .3581E-4
MEAN_MOTION_DDOT = 0

CCSDS_OMM_VERS = 2.0
CREATION_DATE  = 
ORIGINATOR     = 

OBJECT_NAME    = HXMT (HUIYAN)
OBJECT_ID      = 2017-034A
CENTER_NAME    = EARTH
REF_FRAME      = TEME
TIME_SYSTEM    = UTC
MEAN_ELEMENT_THEORY = SGP/SGP4

EPOCH          = 2026-02-17T13:38:15.047808
MEAN_MOTION    = 15.17202746
ECCENTRICITY   = .00305764
INCLINATION    = 43.0145
RA_OF_ASC_NODE = 128.5168
ARG_OF_PERICENTER = 108.2226
MEAN_ANOMALY   = 252.1953

EPHEMERIS_TYPE = 0
CLASSIFICATION_TYPE = U
NORAD_CAT_ID   = 42758
ELEMENT_SET_NO = 999
REV_AT_EPOCH   = 47948
BSTAR          = .34692636E-3
MEAN_MOTION_DOT = .6868E-4
MEAN_MOTION_DDOT = 0

CCSDS_OMM_VERS = 2.0
CREATION_DATE  = 
ORIGINATOR     = 

OBJECT_NAME    = CZ-2C R/B
OBJECT_ID      = 2018-054D
CENTER_NAME    = EARTH
REF_FRAME      = TEME
TIME_SYSTEM    = UTC
MEAN_ELEMENT_THEORY = SGP/SGP4

EPOCH          = 2026-02-17T11:51:32.507136
MEAN_MOTION    = 16.04439528
ECCENTRICITY   = .0011463
INCLINATION    = 35.1267
RA_OF_ASC_NODE = 80.7709
ARG_OF_PERICENTER = 114.8865
MEAN_ANOMALY   = 245.3070

EPHEMERIS_TYPE = 0
CLASSIFICATION_TYPE = U
NORAD_CAT_ID   = 43521
ELEMENT_SET_NO = 999
REV_AT_EPOCH   = 42565
BSTAR          = .86523205E-3
MEAN_MOTION_DOT = .610028E-2
MEAN_MOTION_DDOT = .17364608E-3

CCSDS_OMM_VERS = 2.0
CREATION_DATE  = 
ORIGINATOR     = 

OBJECT_NAME    = SAOCOM 1A
OBJECT_ID      = 2018-076A
CENTER_NAME    = EARTH
REF_FRAME      = TEME
TIME_SYSTEM    = UTC
MEAN_ELEMENT_THEORY = SGP/SGP4

EPOCH          = 2026-02-17T15:24:59.478048
MEAN_MOTION    = 14.82144305
ECCENTRICITY   = .00013526
INCLINATION    = 97.8871
RA_OF_ASC_NODE = 237.0986
ARG_OF_PERICENTER = 80.3447
MEAN_ANOMALY   = 279.7919

EPHEMERIS_TYPE = 0
CLASSIFICATION_TYPE = U
NORAD_CAT_ID   = 43641
ELEMENT_SET_NO = 999
REV_AT_EPOCH   = 39839
BSTAR          = -.1408337E-5
MEAN_MOTION_DOT = -.63E-6
MEAN_MOTION_DDOT = 0

CCSDS_OMM_VERS = 2.0
CREATION_DATE  = 
ORIGINATOR     = 

OBJECT_NAME    = H-2A R/B
OBJECT_ID      = 2018-084L
CENTER_NAME    = EARTH
REF_FRAME      = TEME
TIME_SYSTEM    = UTC
MEAN_ELEMENT_THEORY = SGP/SGP4

EPOCH          = 2026-02-17T12:52:58.986912
MEAN_MOTION    = 15.40439677
ECCENTRICITY   = .00263838
INCLINATION    = 98.8746
RA_OF_ASC_NODE = 261.6317
ARG_OF_PERICENTER = 92.9332
MEAN_ANOMALY   = 267.4929

EPHEMERIS_TYPE = 0
CLASSIFICATION_TYPE = U
NORAD_CAT_ID   = 43682
ELEMENT_SET_NO = 999
REV_AT_EPOCH   = 40267
BSTAR          = .43853899E-3
MEAN_MOTION_DOT = .17879E-3
MEAN_MOTION_DDOT = 0

CCSDS_OMM_VERS = 2.0
CREATION_DATE  = 
ORIGINATOR     = 

OBJECT_NAME    = SAOCOM 1B
OBJECT_ID      = 2020-059A
CENTER_NAME    = EARTH
REF_FRAME      = TEME
TIME_SYSTEM    = UTC
MEAN_ELEMENT_THEORY = SGP/SGP4

EPOCH          = 2026-02-17T14:32:47.435712
MEAN_MOTION    = 14.82149516
ECCENTRICITY   = .00014766
INCLINATION    = 97.8868
RA_OF_ASC_NODE = 236.1606
ARG_OF_PERICENTER = 86.8712
MEAN_ANOMALY   = 273.2670

EPHEMERIS_TYPE = 0
CLASSIFICATION_TYPE = U
NORAD_CAT_ID   = 46265
ELEMENT_SET_NO = 999
REV_AT_EPOCH   = 29577
BSTAR          = .11065953E-3
MEAN_MOTION_DOT = .829E-5
MEAN_MOTION_DDOT = 0

CCSDS_OMM_VERS = 2.0
CREATION_DATE  = 
ORIGINATOR     = 

OBJECT_NAME    = CSS (TIANHE)
OBJECT_ID      = 2021-035A
CENTER_NAME    = EARTH
REF_FRAME      = TEME
TIME_SYSTEM    = UTC
MEAN_ELEMENT_THEORY = SGP/SGP4

EPOCH          = 2026-02-17T05:34:10.349472
MEAN_MOTION    = 15.59770251
ECCENTRICITY   = .0004162
INCLINATION    = 41.4683
RA_OF_ASC_NODE = 332.5551
ARG_OF_PERICENTER = 122.3722
MEAN_ANOMALY   = 237.7519

EPHEMERIS_TYPE = 0
CLASSIFICATION_TYPE = U
NORAD_CAT_ID   = 48274
ELEMENT_SET_NO = 999
REV_AT_EPOCH   = 27441
BSTAR          = .35627E-3
MEAN_MOTION_DOT = .29154E-3
MEAN_MOTION_DDOT = 0

CCSDS_OMM_VERS = 2.0
CREATION_DATE  = 
ORIGINATOR     = 

OBJECT_NAME    = COSMOS 2550
OBJECT_ID      = 2021-056A
CENTER_NAME    = EARTH
REF_FRAME      = TEME
TIME_SYSTEM    = UTC
MEAN_ELEMENT_THEORY = SGP/SGP4

EPOCH          = 2026-02-17T15:05:47.405760
MEAN_MOTION    = 15.33831128
ECCENTRICITY   = .000831
INCLINATION    = 67.1419
RA_OF_ASC_NODE = 101.6131
ARG_OF_PERICENTER = 269.9280
MEAN_ANOMALY   = 90.0922

EPHEMERIS_TYPE = 0
CLASSIFICATION_TYPE = U
NORAD_CAT_ID   = 48865
ELEMENT_SET_NO = 999
REV_AT_EPOCH   = 26038
BSTAR          = .39412E-5
MEAN_MOTION_DOT = -.62E-6
MEAN_MOTION_DDOT = 0

CCSDS_OMM_VERS = 2.0
CREATION_DATE  = 
ORIGINATOR     = 

OBJECT_NAME    = CZ-2C R/B
OBJECT_ID      = 2022-058K
CENTER_NAME    = EARTH
REF_FRAME      = TEME
TIME_SYSTEM    = UTC
MEAN_ELEMENT_THEORY = SGP/SGP4

EPOCH          = 2026-02-17T10:38:13.084800
MEAN_MOTION    = 15.52770409
ECCENTRICITY   = .00421109
INCLINATION    = 50.1884
RA_OF_ASC_NODE = 62.3184
ARG_OF_PERICENTER = 114.6971
MEAN_ANOMALY   = 245.8392

EPHEMERIS_TYPE = 0
CLASSIFICATION_TYPE = U
NORAD_CAT_ID   = 52794
ELEMENT_SET_NO = 999
REV_AT_EPOCH   = 20698
BSTAR          = .56381122E-3
MEAN_MOTION_DOT = .36619E-3
MEAN_MOTION_DDOT = 0

